start=new Date('2022-01-15T00:00:00.000Z').valueOf();
sats=[{"BSTAR":"0.00012764000000","COUNTRY_CODE":"US","REF_FRAME":"TEME","MEAN_MOTION":"15.06390810","INCLINATION":"53.0566","RCS_SIZE":"LARGE","SITE":"AFETR","PERIAPSIS":"545.918","TLE_LINE2":"2 46556  53.0566 137.0188 0001911  95.5924 264.5283 15.06390810 71187","LAUNCH_DATE":"2020-10-06","MEAN_ELEMENT_THEORY":"SGP4","DECAY_DATE":null,"ARG_OF_PERICENTER":"95.5924","MEAN_MOTION_DOT":"0.00001620","CENTER_NAME":"EARTH","OBJECT_ID":"2020-070AA","SEMIMAJOR_AXIS":"6925.377","MEAN_MOTION_DDOT":"0.0000000000000","EPOCH":"2022-01-14T20:20:22.602912","CLASSIFICATION_TYPE":"U","ECCENTRICITY":"0.00019110","ELEMENT_SET_NO":"999","EPHEMERIS_TYPE":"0","NORAD_CAT_ID":"46556","RA_OF_ASC_NODE":"137.0188","MEAN_ANOMALY":"264.5283","FILE":"3273247","REV_AT_EPOCH":"7118","APOAPSIS":"548.565","OBJECT_TYPE":"PAYLOAD","OBJECT_NAME":"STARLINK-1676","PERIOD":"95.593","GP_ID":"193878512","TLE_LINE1":"1 46556U 20070AA  22014.84748383  .00001620  00000-0  12764-3 0  9991","TIME_SYSTEM":"UTC"},{"ELEMENT_SET_NO":"999","ECCENTRICITY":"0.00014830","RA_OF_ASC_NODE":"123.3050","NORAD_CAT_ID":"46557","REV_AT_EPOCH":"7136","FILE":"3273043","MEAN_ANOMALY":"262.8047","EPHEMERIS_TYPE":"0","OBJECT_NAME":"STARLINK-1679","APOAPSIS":"548.251","OBJECT_TYPE":"PAYLOAD","GP_ID":"193852993","TLE_LINE1":"1 46557U 20070AB  22014.55951455  .00000599  00000-0  59082-4 0  9995","TIME_SYSTEM":"UTC","PERIOD":"95.592","REF_FRAME":"TEME","MEAN_MOTION":"15.06396651","COUNTRY_CODE":"US","BSTAR":"0.00005908200000","PERIAPSIS":"546.197","TLE_LINE2":"2 46557  53.0550 123.3050 0001483  97.3110 262.8047 15.06396651 71366","RCS_SIZE":"LARGE","INCLINATION":"53.0550","SITE":"AFETR","ARG_OF_PERICENTER":"97.3110","MEAN_MOTION_DOT":"0.00000599","CENTER_NAME":"EARTH","OBJECT_ID":"2020-070AB","LAUNCH_DATE":"2020-10-06","MEAN_ELEMENT_THEORY":"SGP4","DECAY_DATE":null,"SEMIMAJOR_AXIS":"6925.359","MEAN_MOTION_DDOT":"0.0000000000000","EPOCH":"2022-01-14T13:25:42.057120","CLASSIFICATION_TYPE":"U"},{"OBJECT_TYPE":"PAYLOAD","APOAPSIS":"548.113","OBJECT_NAME":"STARLINK-1680","PERIOD":"95.592","TIME_SYSTEM":"UTC","TLE_LINE1":"1 46558U 20070AC  22014.76592356  .00001795  00000-0  13936-3 0  9996","GP_ID":"193879014","ECCENTRICITY":"0.00013130","ELEMENT_SET_NO":"999","EPHEMERIS_TYPE":"0","MEAN_ANOMALY":"269.6710","FILE":"3273247","REV_AT_EPOCH":"7135","RA_OF_ASC_NODE":"122.3724","NORAD_CAT_ID":"46558","MEAN_ELEMENT_THEORY":"SGP4","DECAY_DATE":null,"LAUNCH_DATE":"2020-10-06","OBJECT_ID":"2020-070AC","MEAN_MOTION_DOT":"0.00001795","ARG_OF_PERICENTER":"90.4429","CENTER_NAME":"EARTH","EPOCH":"2022-01-14T18:22:55.795584","CLASSIFICATION_TYPE":"U","SEMIMAJOR_AXIS":"6925.339","MEAN_MOTION_DDOT":"0.0000000000000","BSTAR":"0.00013936000000","COUNTRY_CODE":"US","MEAN_MOTION":"15.06403155","REF_FRAME":"TEME","SITE":"AFETR","RCS_SIZE":"LARGE","INCLINATION":"53.0537","TLE_LINE2":"2 46558  53.0537 122.3724 0001313  90.4429 269.6710 15.06403155 71357","PERIAPSIS":"546.295"},{"DECAY_DATE":null,"MEAN_ELEMENT_THEORY":"SGP4","LAUNCH_DATE":"2020-10-06","OBJECT_ID":"2020-070AD","CENTER_NAME":"EARTH","ARG_OF_PERICENTER":"88.5497","MEAN_MOTION_DOT":"0.00000744","CLASSIFICATION_TYPE":"U","EPOCH":"2022-01-14T16:30:47.840544","SEMIMAJOR_AXIS":"6925.325","MEAN_MOTION_DDOT":"0.0000000000000","COUNTRY_CODE":"US","BSTAR":"0.00006882400000","MEAN_MOTION":"15.06407609","REF_FRAME":"TEME","SITE":"AFETR","RCS_SIZE":"LARGE","INCLINATION":"53.0551","TLE_LINE2":"2 46559  53.0551 107.7228 0001238  88.5497 271.5633 15.06407609 71577","PERIAPSIS":"546.333","OBJECT_TYPE":"PAYLOAD","APOAPSIS":"548.048","OBJECT_NAME":"STARLINK-1681","PERIOD":"95.592","TIME_SYSTEM":"UTC","GP_ID":"193879265","TLE_LINE1":"1 46559U 20070AD  22014.68805371  .00000744  00000-0  68824-4 0  9992","ECCENTRICITY":"0.00012380","ELEMENT_SET_NO":"999","EPHEMERIS_TYPE":"0","FILE":"3273247","MEAN_ANOMALY":"271.5633","REV_AT_EPOCH":"7157","NORAD_CAT_ID":"46559","RA_OF_ASC_NODE":"107.7228"},{"BSTAR":"0.00005833500000","COUNTRY_CODE":"US","MEAN_MOTION":"15.06401942","REF_FRAME":"TEME","SITE":"AFETR","INCLINATION":"53.0533","RCS_SIZE":"LARGE","TLE_LINE2":"2 46560  53.0533 122.9084 0001183  88.5834 271.5291 15.06401942 71363","PERIAPSIS":"546.388","DECAY_DATE":null,"MEAN_ELEMENT_THEORY":"SGP4","LAUNCH_DATE":"2020-10-06","OBJECT_ID":"2020-070AE","CENTER_NAME":"EARTH","MEAN_MOTION_DOT":"0.00000588","ARG_OF_PERICENTER":"88.5834","CLASSIFICATION_TYPE":"U","EPOCH":"2022-01-14T15:33:04.748832","SEMIMAJOR_AXIS":"6925.343","MEAN_MOTION_DDOT":"0.0000000000000","ECCENTRICITY":"0.00011830","ELEMENT_SET_NO":"999","EPHEMERIS_TYPE":"0","REV_AT_EPOCH":"7136","FILE":"3273247","MEAN_ANOMALY":"271.5291","RA_OF_ASC_NODE":"122.9084","NORAD_CAT_ID":"46560","OBJECT_TYPE":"PAYLOAD","APOAPSIS":"548.027","OBJECT_NAME":"STARLINK-1706","PERIOD":"95.592","TIME_SYSTEM":"UTC","TLE_LINE1":"1 46560U 20070AE  22014.64797163  .00000588  00000-0  58335-4 0  9991","GP_ID":"193878013"},{"NORAD_CAT_ID":"46561","RA_OF_ASC_NODE":"122.5500","MEAN_ANOMALY":"264.0323","FILE":"3273247","REV_AT_EPOCH":"7137","EPHEMERIS_TYPE":"0","ELEMENT_SET_NO":"999","ECCENTRICITY":"0.00014280","GP_ID":"193878263","TLE_LINE1":"1 46561U 20070AF  22014.72906991  .00000580  00000-0  57820-4 0  9992","TIME_SYSTEM":"UTC","PERIOD":"95.593","OBJECT_NAME":"STARLINK-1709","APOAPSIS":"548.221","OBJECT_TYPE":"PAYLOAD","PERIAPSIS":"546.243","TLE_LINE2":"2 46561  53.0550 122.5500 0001428  96.0829 264.0323 15.06393874 71370","INCLINATION":"53.0550","RCS_SIZE":"LARGE","SITE":"AFETR","REF_FRAME":"TEME","MEAN_MOTION":"15.06393874","COUNTRY_CODE":"US","BSTAR":"0.00005782000000","SEMIMAJOR_AXIS":"6925.367","MEAN_MOTION_DDOT":"0.0000000000000","EPOCH":"2022-01-14T17:29:51.640224","CLASSIFICATION_TYPE":"U","ARG_OF_PERICENTER":"96.0829","MEAN_MOTION_DOT":"0.00000580","CENTER_NAME":"EARTH","OBJECT_ID":"2020-070AF","LAUNCH_DATE":"2020-10-06","MEAN_ELEMENT_THEORY":"SGP4","DECAY_DATE":null},{"MEAN_MOTION_DDOT":"0.0000000000000","SEMIMAJOR_AXIS":"6925.368","CLASSIFICATION_TYPE":"U","EPOCH":"2022-01-14T19:08:42.825696","LAUNCH_DATE":"2020-10-06","DECAY_DATE":null,"MEAN_ELEMENT_THEORY":"SGP4","CENTER_NAME":"EARTH","ARG_OF_PERICENTER":"98.5519","MEAN_MOTION_DOT":"0.00000786","OBJECT_ID":"2020-070AG","INCLINATION":"53.0549","RCS_SIZE":"LARGE","SITE":"AFETR","PERIAPSIS":"546.148","TLE_LINE2":"2 46562  53.0549 117.2380 0001567  98.5519 261.5647 15.06393738 71452","COUNTRY_CODE":"US","BSTAR":"0.00007165000000","REF_FRAME":"TEME","MEAN_MOTION":"15.06393738","PERIOD":"95.593","TLE_LINE1":"1 46562U 20070AG  22014.79771789  .00000786  00000-0  71650-4 0  9990","GP_ID":"193879514","TIME_SYSTEM":"UTC","APOAPSIS":"548.318","OBJECT_TYPE":"PAYLOAD","OBJECT_NAME":"STARLINK-1714","EPHEMERIS_TYPE":"0","RA_OF_ASC_NODE":"117.2380","NORAD_CAT_ID":"46562","FILE":"3273247","REV_AT_EPOCH":"7145","MEAN_ANOMALY":"261.5647","ECCENTRICITY":"0.00015670","ELEMENT_SET_NO":"999"},{"CENTER_NAME":"EARTH","MEAN_MOTION_DOT":"0.00001279","ARG_OF_PERICENTER":"82.6075","OBJECT_ID":"2020-070AH","LAUNCH_DATE":"2020-10-06","DECAY_DATE":null,"MEAN_ELEMENT_THEORY":"SGP4","SEMIMAJOR_AXIS":"6925.367","MEAN_MOTION_DDOT":"0.0000000000000","CLASSIFICATION_TYPE":"U","EPOCH":"2022-01-14T17:06:38.022912","REF_FRAME":"TEME","MEAN_MOTION":"15.06393991","BSTAR":"0.00010473000000","COUNTRY_CODE":"US","PERIAPSIS":"546.293","TLE_LINE2":"2 46563  53.0559 117.6014 0001356  82.6075 277.5068 15.06393991 71443","INCLINATION":"53.0559","RCS_SIZE":"LARGE","SITE":"AFETR","OBJECT_NAME":"STARLINK-1730","APOAPSIS":"548.171","OBJECT_TYPE":"PAYLOAD","GP_ID":"193879765","TLE_LINE1":"1 46563U 20070AH  22014.71294008  .00001279  00000-0  10473-3 0  9990","TIME_SYSTEM":"UTC","PERIOD":"95.593","ELEMENT_SET_NO":"999","ECCENTRICITY":"0.00013560","NORAD_CAT_ID":"46563","RA_OF_ASC_NODE":"117.6014","REV_AT_EPOCH":"7144","FILE":"3273247","MEAN_ANOMALY":"277.5068","EPHEMERIS_TYPE":"0"},{"OBJECT_NAME":"STARLINK-1733","APOAPSIS":"548.205","OBJECT_TYPE":"PAYLOAD","TLE_LINE1":"1 46564U 20070AJ  22014.76085290  .00000933  00000-0  81541-4 0  9998","GP_ID":"193878513","TIME_SYSTEM":"UTC","PERIOD":"95.592","ELEMENT_SET_NO":"999","ECCENTRICITY":"0.00014490","NORAD_CAT_ID":"46564","RA_OF_ASC_NODE":"117.4072","FILE":"3273247","REV_AT_EPOCH":"7145","MEAN_ANOMALY":"259.5019","EPHEMERIS_TYPE":"0","MEAN_MOTION_DOT":"0.00000933","ARG_OF_PERICENTER":"100.6134","CENTER_NAME":"EARTH","OBJECT_ID":"2020-070AJ","LAUNCH_DATE":"2020-10-06","MEAN_ELEMENT_THEORY":"SGP4","DECAY_DATE":null,"MEAN_MOTION_DDOT":"0.0000000000000","SEMIMAJOR_AXIS":"6925.337","EPOCH":"2022-01-14T18:15:37.690560","CLASSIFICATION_TYPE":"U","REF_FRAME":"TEME","MEAN_MOTION":"15.06403768","BSTAR":"0.00008154100000","COUNTRY_CODE":"US","PERIAPSIS":"546.199","TLE_LINE2":"2 46564  53.0557 117.4072 0001449 100.6134 259.5019 15.06403768 71455","INCLINATION":"53.0557","RCS_SIZE":"LARGE","SITE":"AFETR"},{"EPHEMERIS_TYPE":"0","NORAD_CAT_ID":"46565","RA_OF_ASC_NODE":"117.1891","FILE":"3273247","MEAN_ANOMALY":"269.4818","REV_AT_EPOCH":"7145","ECCENTRICITY":"0.00013070","ELEMENT_SET_NO":"999","PERIOD":"95.592","GP_ID":"193878763","TLE_LINE1":"1 46565U 20070AK  22014.80509407  .00000499  00000-0  52412-4 0  9997","TIME_SYSTEM":"UTC","APOAPSIS":"548.131","OBJECT_TYPE":"PAYLOAD","OBJECT_NAME":"STARLINK-1735","INCLINATION":"53.0605","RCS_SIZE":"LARGE","SITE":"AFETR","PERIAPSIS":"546.321","TLE_LINE2":"2 46565  53.0605 117.1891 0001307  90.6320 269.4818 15.06395826 71456","BSTAR":"0.00005241200000","COUNTRY_CODE":"US","REF_FRAME":"TEME","MEAN_MOTION":"15.06395826","MEAN_MOTION_DDOT":"0.0000000000000","SEMIMAJOR_AXIS":"6925.361","EPOCH":"2022-01-14T19:19:20.127648","CLASSIFICATION_TYPE":"U","LAUNCH_DATE":"2020-10-06","MEAN_ELEMENT_THEORY":"SGP4","DECAY_DATE":null,"ARG_OF_PERICENTER":"90.6320","MEAN_MOTION_DOT":"0.00000499","CENTER_NAME":"EARTH","OBJECT_ID":"2020-070AK"}];
